#dP2024  2  4  0  0  0.00000000      97 __u+U IGS20 FIT  IAC
## 2300      0.00000000   900.00000000 60344 0.0000000000000
+  119   C06C07C08C09C10C11C12C13C14C16C19C20C21C22C23C24C25
+        C26C27C28C29C30C32C33C34C35C36C37C38C39C40C41C42C43
+        C44C45C46E02E03E04E05E07E08E09E10E11E12E13E14E15E18
+        E19E21E24E25E26E27E30E31E33E34E36G01G02G03G04G05G06
+        G07G08G09G10G11G12G13G14G15G16G17G18G19G20G21G22G23
+        G24G25G26G27G28G29G30G31G32J02J03R01R02R03R04R05R07
+        R08R09R11R12R13R14R15R16R17R18R19R20R21R22R24R25R26
++         7  7  7  7  7  8  6 10  7  7  6  6  5  6  6  6  6
++         5  6  6  6  5  6  6  6  6  5  6  6  6  6  6  5  6
++         6  5  6  4  4  4  4  4  4  4  4  4  5  4  4  4  4
++         4  4  4  4  4  4  4  4  4  4  4  4  3  3  3  3  3
++         3  4  3  3  3  3  3  3  4  3  3  3  3  3  4  3  3
++         3  3  3  4  3  3  3  3  3  9  9  7  7  7  6  6  6
++         7  6  7  7  8  7  6  6  6  6  7  7  7  7  6  8  8
%c M  cc GPS ccc cccc cccc cccc cccc ccccc ccccc ccccc ccccc
%c cc cc ccc ccc cccc cccc cccc cccc ccccc ccccc ccccc ccccc
%f  1.2500000  1.025000000  0.00000000000  0.000000000000000
%f  0.0000000  0.000000000  0.00000000000  0.000000000000000
%i    0    0    0    0      0      0      0      0         0
%i    0    0    0    0      0      0      0      0         0
/* INFORMATION & ANALYSIS CENTER (IAC)            FINAL DATA
/* S/V CLOCKS ARE ALIGNED TO GNSS TIME                      
/* G:C1WC2W R:C1PC2P E:C1XC5X C:C2IC6I J:C1CC2S             
/* PCV:IGS20_2290 OL/AL:FES2004  NONE     YN ORB:CoN CLK:CoN
*  2024 02 04  1 30  0.00000000
PC06  -8592.788306  23186.112027  34180.246726     87.970588
PC07 -16021.691447  37559.608860 -10803.039442   -744.651886
PC08   -569.672492  36386.542054 -21088.777163     64.702890
PC09   2104.263711  25829.096592  33788.483727   -442.355011
PC10 -10342.852584  37736.870452 -16048.790132     99.406852
PC11  11592.216546  13675.293347 -21312.785936    392.369529
PC12 -10262.833170  14755.544661 -21303.807015    778.656450
PC13   5513.738567  39455.115868 -13172.804043    414.130428
PC14   3722.362309  20876.331737  18185.720972    112.193982
PC16 -10205.661828  22241.819113  34571.909742   -319.308719
PC19 -10545.388000 -12917.532612 -22344.431811   -930.330090
PC20   2475.143397 -24773.492172 -12562.910163   -128.806768
PC21 -15238.130429  22664.839319  -5772.620495   -962.861761
PC22 -18301.398438   7061.640733 -19856.103780   -122.828642
PC23  20054.230784   5407.344379 -18639.804940   -783.859994
PC24   5515.836087  24222.729536  12662.096874    851.898527
PC25  18727.622926  20130.592734  -4720.748082    317.703121
PC26  -9498.023360  14081.710475  22114.210723   -244.181412
PC27  18859.658833 -12652.425717  16208.434419    266.192373
PC28  27663.046713  -3200.010098   1850.193818    202.303867
PC29 -20607.455627  -9306.078318  16347.273574    237.075241
PC30   -355.112582 -16068.922648  22806.629286    -21.267663
PC32  15119.161423 -22695.037812   5914.925094   -562.494197
PC33  10589.026240  12991.796339  22321.701957   -946.366029
PC34   2215.585643  15935.339809 -22812.072618    361.660461
PC35 -27510.240344   4194.044704  -1775.866336    441.859804
PC36 -18035.184468 -20890.624379   4192.057651    -27.800661
PC37  10155.397150 -13496.736129 -22216.300381   -934.249681
PC38  -6536.660110  32093.997797 -26411.117452    134.623588
PC39 -17420.724792  20003.911240  32770.728606     -6.964801
PC40 -23800.716433  33676.942642  -9419.034367    -54.955525
PC41  18189.638374  -6193.446602  20289.710544   -886.372647
PC42  -3591.161368  25321.312859  11243.972282   -457.975032
PC43  19885.501971   9916.423815 -16905.625590     59.044908
PC44 -18449.335835  13428.755082 -16052.765671    373.905761
PC45 -19900.083956  -5274.892296  18839.775139    -67.793344
PC46  -6303.245253 -24442.750774 -11958.280996   -120.989711
PE02   1845.672268 -29385.621520  -3171.316600    100.515823
PE03   7977.094343 -20758.638014 -19534.070775    -91.475924
PE04  12644.669928  11930.047840  23964.631310   -319.100687
PE05  23672.348564 -17366.427753  -3775.373229   4716.687062
PE07 -25508.511486   3466.564105 -14610.249675   -101.919415
PE08 -11930.800839 -12266.900656 -24152.814468   -218.374984
PE09  25412.241129  -3438.478437  14777.622654   -323.443564
PE10  25920.468604  14295.022226    -52.005858   -599.246050
PE11  26808.312005   7290.042189  10238.513804   3263.795522
PE12  21217.517049  18519.490550  -9146.678092   -891.278195
PE13 -26877.496846  -7792.094378  -9619.473907    -20.083496
PE14 -16604.453001  23501.983882 -15012.533037     29.414559
PE15 -20850.735495 -18633.234351   9700.241454    -83.846852
PE18   7889.092228 -17390.831544  13885.127132    286.639287
PE19 -10386.083859  20874.817005  18239.987164   -683.134592
PE21 -12739.632795  18915.564140  18857.472036   -577.233367
PE24  16783.807288   3536.726759 -24143.783694   -578.791728
PE25  12914.275232 -18568.965106 -19103.375100      0.404450
PE26 -16625.085243   8024.309943 -23127.017457    358.571222
PE27 -16754.907295  -3058.460488  24204.467171   -265.926027
PE30 -10666.575676 -23185.092835  14994.050678   -878.414882
PE31  10850.203521  22943.486699 -15226.012696    -15.216800
PE33   2112.826416  18208.622961 -23232.964002      7.035575
PE34  -2744.370201 -18392.682651  23031.056228    -92.682407
PE36  17108.365975  -7419.368729  22999.089842   -181.051658
PG01  23295.526297  13135.619786    -24.313690    168.212114
PG02  21146.875354  14437.707214  -7034.621684   -490.876511
PG03  11659.108052  16938.543008  16736.606981    170.441666
PG04  16185.284007   6715.790313  20011.470499    282.917755
PG05  -6828.205128 -24665.573140  -7090.434215   -160.472886
PG06   9726.997429 -11211.434152  22102.630975    420.594361
PG07  23820.668782   3735.156638 -11163.763136    -53.505178
PG08   8769.020903  12639.209757 -21744.274119   -165.345937
PG09  23132.150600  -5022.342583  12024.709700     80.481418
PG10 -10901.109786  16753.110726 -17116.939526    -71.926845
PG11  -2293.532890 -17440.456196  19939.039904   -563.700863
PG12 -10615.828241 -17931.201474  16223.844098   -474.513177
PG13   2080.181740 -16496.546585 -20863.267860    622.241509
PG14  13479.203487 -12930.615753 -18789.970906    316.436164
PG15 -10209.246937 -12334.139294 -21680.390379    124.057893
PG16   -237.415159  26267.753348  -1763.604610   -370.268676
PG17  23093.907507 -13269.360792   1073.459713    718.049178
PG18 -23026.388181  -2685.151792 -13112.433192   -547.693765
PG19  18606.426601 -16090.788078   9348.753812    435.769061
PG20   -248.179714 -25716.666585   7037.976399    388.825253
PG21  18000.430144  16276.086145 -11376.122529    136.172113
PG22  10504.823834 -20317.025864 -13316.774731     37.037942
PG23 -14566.556196   3612.238497 -21878.372800    148.802501
PG24 -19424.253893 -15918.844342  -9668.312819   -425.790814
PG25 -15048.654711  -6437.642902  20628.894945    487.479032
PG26  -4578.172629  24077.798773   9610.289303    193.855600
PG27  -4662.374037  18310.225824 -18760.014285     -0.861926
PG28 -12381.561170  10308.942832  21091.464753   -119.487342
PG29 -23007.617443   1848.256049  13180.371682   -607.625186
PG30  18024.598703  -5845.910128 -18587.394038   -437.118325
PG31  -3299.321428  15357.395875  21156.683393   -227.642739
PG32 -20678.371260  16120.552770   3652.970478   -609.593152
PJ02 -29641.941916  25042.687525  21611.337021     -1.683538
PJ03 -28924.217963  16527.628233 -21221.187080     -0.214649
PR01   9537.219331   5454.709420  23025.119196     76.246798
PR02  17053.786406 -10617.453682  15811.326498    -22.443203
PR03  14833.591372 -20786.319896   -469.826164     93.862420
PR04   4858.226041 -19122.604016 -16145.600272    221.918368
PR05  -7857.225260  -7359.006826 -23111.022196    126.365832
PR07 -14398.956248  20969.810889   1515.855028     75.043908
PR08  -4374.019065  19071.787966  16406.144409    -74.280187
PR09 -12733.380497  -1170.312759  22071.755222    168.045462
PR11   6579.611161  23322.980612   7992.876101     35.492202
PR12  14088.454194  18041.595588 -11221.074128     36.358603
PR13  13247.445097   3972.279956 -21453.147168    -43.997218
PR14   3705.064595 -15271.247136 -20083.655059     26.009192
PR15  -7205.550000 -23579.481404  -6523.516544     82.506183
PR16 -14082.435569 -18170.933654  11021.169492     23.005072
PR17  13348.244099  -7831.571981  20277.707002     58.258250
PR18  -4243.622753 -10835.712076  22710.295828    125.581714
PR19 -18464.395993  -9500.033581  14816.996315   -264.500801
PR20 -24826.043375  -1327.141891  -5586.837732   -107.745133
PR21 -13148.448536   7743.424777 -20442.334335    -74.190429
PR22   5126.467875  11384.776083 -22216.737291    106.384332
PR24  24756.617275   -109.566957   6147.671512    -42.510775
PR25 -13641.009104   7560.826962 -20181.607946     81.744857
PR26  -4983.542735  19522.630838  15678.805533   -200.120000
EOF
